{
  "type": "FeatureCollection",
  "features": [
    {
      "type": "Feature",
      "properties": {
        "norad_id": 66639,
        "name": "STARLINK-35908",
        "group": "last-30-days",
        "lat": 31.379036669160467,
        "lon": 149.92297935939376,
        "alt_km": 442.682606195227,
        "timestamp": "2025-12-26T07:29:17.191744+00:00",
        "meta_object_name": "STARLINK-35908",
        "meta_object_id": "2025-271Y",
        "meta_epoch": "2025-12-25T17:17:28.282272",
        "meta_mean_motion": 15.396157,
        "meta_eccentricity": 0.00011134,
        "meta_inclination": 53.1597,
        "meta_ra_of_asc_node": 125.5009,
        "meta_arg_of_pericenter": 80.8294,
        "meta_mean_anomaly": 279.2837,
        "meta_ephemeris_type": 0,
        "meta_classification_type": "U",
        "meta_norad_cat_id": 66639,
        "meta_element_set_no": 999,
        "meta_rev_at_epoch": 621,
        "meta_bstar": 0.00096710482,
        "meta_mean_motion_dot": 0.00038474,
        "meta_mean_motion_ddot": 0,
        "tle_line1": "1 66639U 25271Y   25359.72046623  .00038474  00000+0  96710-3 0  9992",
        "tle_line2": "2 66639  53.1597 125.5009 0001113  80.8294 279.2837 15.39615700  6215"
      },
      "geometry": {
        "type": "Point",
        "coordinates": [
          149.92297935939376,
          31.379036669160467
        ]
      }
    },
    {
      "type": "Feature",
      "properties": {
        "norad_id": 66640,
        "name": "STARLINK-35921",
        "group": "last-30-days",
        "lat": -8.684679874003619,
        "lon": 116.24003838918107,
        "alt_km": 449.02852772464576,
        "timestamp": "2025-12-26T07:29:17.191754+00:00",
        "meta_object_name": "STARLINK-35921",
        "meta_object_id": "2025-271Z",
        "meta_epoch": "2025-12-25T17:30:50.449248",
        "meta_mean_motion": 15.39636254,
        "meta_eccentricity": 1.212e-05,
        "meta_inclination": 53.1611,
        "meta_ra_of_asc_node": 125.56,
        "meta_arg_of_pericenter": 242.9433,
        "meta_mean_anomaly": 117.156,
        "meta_ephemeris_type": 0,
        "meta_classification_type": "U",
        "meta_norad_cat_id": 66640,
        "meta_element_set_no": 999,
        "meta_rev_at_epoch": 621,
        "meta_bstar": 0.00098063977,
        "meta_mean_motion_dot": 0.00039047,
        "meta_mean_motion_ddot": 0,
        "tle_line1": "1 66640U 25271Z   25359.72975057  .00039047  00000+0  98064-3 0  9997",
        "tle_line2": "2 66640  53.1611 125.5600 0000121 242.9433 117.1560 15.39636254  6215"
      },
      "geometry": {
        "type": "Point",
        "coordinates": [
          116.24003838918107,
          -8.684679874003619
        ]
      }
    },
    {
      "type": "Feature",
      "properties": {
        "norad_id": 66641,
        "name": "STARLINK-35923",
        "group": "last-30-days",
        "lat": 9.851049366758367,
        "lon": -65.0195049254996,
        "alt_km": 447.0410627732299,
        "timestamp": "2025-12-26T07:29:17.191764+00:00",
        "meta_object_name": "STARLINK-35923",
        "meta_object_id": "2025-271AA",
        "meta_epoch": "2025-12-25T22:00:01.999584",
        "meta_mean_motion": 15.39593472,
        "meta_eccentricity": 0.00011373,
        "meta_inclination": 53.1605,
        "meta_ra_of_asc_node": 124.3239,
        "meta_arg_of_pericenter": 55.9613,
        "meta_mean_anomaly": 79.2842,
        "meta_ephemeris_type": 0,
        "meta_classification_type": "U",
        "meta_norad_cat_id": 66641,
        "meta_element_set_no": 999,
        "meta_rev_at_epoch": 612,
        "meta_bstar": 0.00075704785,
        "meta_mean_motion_dot": 0.00029974,
        "meta_mean_motion_ddot": 0,
        "tle_line1": "1 66641U 25271AA  25359.91668981  .00029974  00000+0  75705-3 0  9999",
        "tle_line2": "2 66641  53.1605 124.3239 0001137  55.9613  79.2842 15.39593472  6129"
      },
      "geometry": {
        "type": "Point",
        "coordinates": [
          -65.0195049254996,
          9.851049366758367
        ]
      }
    },
    {
      "type": "Feature",
      "properties": {
        "norad_id": 66642,
        "name": "STARLINK-35926",
        "group": "last-30-days",
        "lat": 28.26523551534414,
        "lon": -81.26206062023508,
        "alt_km": 443.8139693173971,
        "timestamp": "2025-12-26T07:29:17.191777+00:00",
        "meta_object_name": "STARLINK-35926",
        "meta_object_id": "2025-271AB",
        "meta_epoch": "2025-12-25T22:00:01.999584",
        "meta_mean_motion": 15.39599606,
        "meta_eccentricity": 0.00011,
        "meta_inclination": 53.1603,
        "meta_ra_of_asc_node": 124.3726,
        "meta_arg_of_pericenter": 57.1386,
        "meta_mean_anomaly": 54.1782,
        "meta_ephemeris_type": 0,
        "meta_classification_type": "U",
        "meta_norad_cat_id": 66642,
        "meta_element_set_no": 999,
        "meta_rev_at_epoch": 612,
        "meta_bstar": 0.00061636652,
        "meta_mean_motion_dot": 0.00024317,
        "meta_mean_motion_ddot": 0,
        "tle_line1": "1 66642U 25271AB  25359.91668981  .00024317  00000+0  61637-3 0  9995",
        "tle_line2": "2 66642  53.1603 124.3726 0001100  57.1386  54.1782 15.39599606  6120"
      },
      "geometry": {
        "type": "Point",
        "coordinates": [
          -81.26206062023508,
          28.26523551534414
        ]
      }
    },
    {
      "type": "Feature",
      "properties": {
        "norad_id": 66643,
        "name": "STARLINK-35918",
        "group": "last-30-days",
        "lat": 47.206649102085244,
        "lon": 176.7294144495915,
        "alt_km": 439.7787565756398,
        "timestamp": "2025-12-26T07:29:17.191787+00:00",
        "meta_object_name": "STARLINK-35918",
        "meta_object_id": "2025-271AC",
        "meta_epoch": "2025-12-25T15:37:18.413184",
        "meta_mean_motion": 15.39654781,
        "meta_eccentricity": 0.0001349,
        "meta_inclination": 53.1627,
        "meta_ra_of_asc_node": 125.776,
        "meta_arg_of_pericenter": 83.2816,
        "meta_mean_anomaly": 276.8342,
        "meta_ephemeris_type": 0,
        "meta_classification_type": "U",
        "meta_norad_cat_id": 66643,
        "meta_element_set_no": 999,
        "meta_rev_at_epoch": 620,
        "meta_bstar": 0.0010433,
        "meta_mean_motion_dot": 0.00041607,
        "meta_mean_motion_ddot": 0,
        "tle_line1": "1 66643U 25271AC  25359.65090756  .00041607  00000+0  10433-2 0  9994",
        "tle_line2": "2 66643  53.1627 125.7760 0001349  83.2816 276.8342 15.39654781  6203"
      },
      "geometry": {
        "type": "Point",
        "coordinates": [
          176.7294144495915,
          47.206649102085244
        ]
      }
    },
    {
      "type": "Feature",
      "properties": {
        "norad_id": 66644,
        "name": "STARLINK-35938",
        "group": "last-30-days",
        "lat": 29.61119519511013,
        "lon": -82.70598632080845,
        "alt_km": 443.5120040245911,
        "timestamp": "2025-12-26T07:29:17.191805+00:00",
        "meta_object_name": "STARLINK-35938",
        "meta_object_id": "2025-271AD",
        "meta_epoch": "2025-12-25T22:00:01.999584",
        "meta_mean_motion": 15.39597007,
        "meta_eccentricity": 9.296e-05,
        "meta_inclination": 53.1603,
        "meta_ra_of_asc_node": 124.3767,
        "meta_arg_of_pericenter": 64.4706,
        "meta_mean_anomaly": 45.0056,
        "meta_ephemeris_type": 0,
        "meta_classification_type": "U",
        "meta_norad_cat_id": 66644,
        "meta_element_set_no": 999,
        "meta_rev_at_epoch": 609,
        "meta_bstar": 0.00061502393,
        "meta_mean_motion_dot": 0.00024261,
        "meta_mean_motion_ddot": 0,
        "tle_line1": "1 66644U 25271AD  25359.91668981  .00024261  00000+0  61502-3 0  9996",
        "tle_line2": "2 66644  53.1603 124.3767 0000929  64.4706  45.0056 15.39597007  6094"
      },
      "geometry": {
        "type": "Point",
        "coordinates": [
          -82.70598632080845,
          29.61119519511013
        ]
      }
    },
    {
      "type": "Feature",
      "properties": {
        "norad_id": 66645,
        "name": "SHENZHOU-22",
        "group": "last-30-days",
        "lat": 36.667076035111016,
        "lon": 56.81365833950096,
        "alt_km": 377.7591894729094,
        "timestamp": "2025-12-26T07:29:17.191816+00:00",
        "meta_object_name": "SHENZHOU-22",
        "meta_object_id": "2025-272A",
        "meta_epoch": "2025-12-25T20:14:16.934784",
        "meta_mean_motion": 15.59690263,
        "meta_eccentricity": 0.00084341,
        "meta_inclination": 41.4681,
        "meta_ra_of_asc_node": 297.125,
        "meta_arg_of_pericenter": 146.1754,
        "meta_mean_anomaly": 213.9624,
        "meta_ephemeris_type": 0,
        "meta_classification_type": "U",
        "meta_norad_cat_id": 66645,
        "meta_element_set_no": 999,
        "meta_rev_at_epoch": 26598,
        "meta_bstar": 0.00020858961,
        "meta_mean_motion_dot": 0.00016869,
        "meta_mean_motion_ddot": 0,
        "tle_line1": "1 66645U 25272A   25359.84325156  .00016869  00000+0  20859-3 0  9999",
        "tle_line2": "2 66645  41.4681 297.1250 0008434 146.1754 213.9624 15.59690263265989"
      },
      "geometry": {
        "type": "Point",
        "coordinates": [
          56.81365833950096,
          36.667076035111016
        ]
      }
    }
  ]
}